[{"OBJECT_NAME":"STARLINK-32471","OBJECT_ID":"2024-210K","EPOCH":"2026-03-09T07:15:12.207168","MEAN_MOTION":15.27553156,"ECCENTRICITY":0.00027202,"INCLINATION":42.9997,"RA_OF_ASC_NODE":174.8458,"ARG_OF_PERICENTER":301.3663,"MEAN_ANOMALY":58.6923,"EPHEMERIS_TYPE":0,"CLASSIFICATION_TYPE":"U","NORAD_CAT_ID":61968,"ELEMENT_SET_NO":999,"REV_AT_EPOCH":7494,"BSTAR":0.0012878556,"MEAN_MOTION_DOT":0.0003532,"MEAN_MOTION_DDOT":0},{"OBJECT_NAME":"TEVEL2-7","OBJECT_ID":"2025-052AE","EPOCH":"2026-03-09T15:52:01.887744","MEAN_MOTION":15.28414096,"ECCENTRICITY":0.00081048,"INCLINATION":97.4054,"RA_OF_ASC_NODE":324.3041,"ARG_OF_PERICENTER":124.683,"MEAN_ANOMALY":235.5175,"EPHEMERIS_TYPE":0,"CLASSIFICATION_TYPE":"U","NORAD_CAT_ID":63238,"ELEMENT_SET_NO":999,"REV_AT_EPOCH":5480,"BSTAR":0.00069668191,"MEAN_MOTION_DOT":0.00019244,"MEAN_MOTION_DDOT":0}]
